[{"OBJECT_NAME":"AQUA","OBJECT_ID":"2002-022A","EPOCH":"2026-03-09T23:03:04.467168","MEAN_MOTION":14.6197796,"ECCENTRICITY":5.597e-5,"INCLINATION":98.4175,"RA_OF_ASC_NODE":36.3303,"ARG_OF_PERICENTER":81.6608,"MEAN_ANOMALY":350.7427,"EPHEMERIS_TYPE":0,"CLASSIFICATION_TYPE":"U","NORAD_CAT_ID":27424,"ELEMENT_SET_NO":999,"REV_AT_EPOCH":26877,"BSTAR":0.00028652441,"MEAN_MOTION_DOT":1.387e-5,"MEAN_MOTION_DDOT":0},{"OBJECT_NAME":"COSMOS 2251 DEB","OBJECT_ID":"1993-036EP","EPOCH":"2026-03-09T17:42:43.015968","MEAN_MOTION":14.59895728,"ECCENTRICITY":0.0014444,"INCLINATION":74.0369,"RA_OF_ASC_NODE":294.7068,"ARG_OF_PERICENTER":32.1208,"MEAN_ANOMALY":328.0835,"EPHEMERIS_TYPE":0,"CLASSIFICATION_TYPE":"U","NORAD_CAT_ID":33934,"ELEMENT_SET_NO":999,"REV_AT_EPOCH":90008,"BSTAR":0.00075568605,"MEAN_MOTION_DOT":3.596e-5,"MEAN_MOTION_DDOT":0}]
